GSAT0218 (GALILEO 22)   
1 43058U 17079D   26115.95522277 -.00000039  00000+0  00000+0 0  9999
2 43058  55.0879 222.9388 0003183 277.2874  82.6679  1.70474761 52127
GOES 17                 
1 43226U 18022A   26117.20253023 -.00000192  00000+0  00000+0 0  9995
2 43226   0.8088  86.3949 0000659 278.4126 193.8075  1.00271983 29917
GSAT0221 (GALILEO 25)   
1 43564U 18060A   26114.09926935 -.00000088  00000+0  00000+0 0  9999
2 43564  57.1855 343.2419 0003847 321.5085  38.5036  1.70475641 48245
GSAT0222 (GALILEO 26)   
1 43565U 18060B   26115.49200276 -.00000090  00000+0  00000+0 0  9991
2 43565  57.1892 343.2075 0002413 289.5902  70.4237  1.70475419 48313
GSAT0219 (GALILEO 23)   
1 43566U 18060C   26113.95323101 -.00000088  00000+0  00000+0 0  9991
2 43566  57.1884 343.2507 0003351 340.2281  19.7984  1.70475588 48268
GSAT0220 (GALILEO 24)   
1 43567U 18060D   26114.76093408 -.00000089  00000+0  00000+0 0  9997
2 43567  57.1842 343.2275 0003644  44.9018 315.1672  1.70475503 48260
BEIDOU-3 M13            
1 43622U 18072A   26116.98805852 -.00000045  00000+0  00000+0 0  9994
2 43622  56.5822  64.3480 0008846 318.5007  41.4014  1.86230948 51700
BEIDOU-3 M14            
1 43623U 18072B   26114.70569242 -.00000024  00000+0  00000+0 0  9990
2 43623  56.5822  64.4176 0006921 342.3518  17.5993  1.86231012 51655
GPS BIII-1              
1 43873U 18109A   26116.40139615  .00000039  00000+0  00000+0 0  9999
2 43873  55.6514  94.2279 0037898 198.8751 333.4999  2.00559161 54031
METEOR-M2 2             
1 44387U 19038A   26117.24569358  .00000193  00000+0  10347-3 0  9996
2 44387  98.9131 103.7859 0001767 125.9450 234.1892 14.24351337354047
GPS BIII-2              
1 44506U 19056A   26117.03436081 -.00000081  00000+0  00000+0 0  9990
2 44506  55.6599 333.1752 0059578 197.4088 334.1665  2.00569164 49043
BEIDOU-3 M24            
1 44542U 19061A   26116.69481519  .00000003  00000+0  00000+0 0  9996
2 44542  54.3940 184.4646 0008047   6.3998 353.6719  1.86228939 44834
BEIDOU-3 M23            
1 44543U 19061B   26116.27266917 -.00000002  00000+0  00000+0 0  9994
2 44543  54.3929 184.4471 0005040 348.5066   0.4603  1.86227142 44828
BEIDOU-3 M22            
1 44793U 19078A   26115.99699650 -.00000055  00000+0  00000+0 0  9999
2 44793  53.9841 301.6629 0007305  45.8856 314.1715  1.86226949 43676
BEIDOU-3 M21            
1 44794U 19078B   26116.67401454 -.00000060  00000+0  00000+0 0  9995
2 44794  53.9567 301.6016 0005184  43.3217 316.7148  1.86227493 43694
ELEKTRO-L 3             
1 44903U 19095A   26117.07594709 -.00000106  00000+0  00000+0 0  9998
2 44903   0.1267  75.8393 0001080 297.9664 304.5436  1.00271321 23192
GPS BIII-3              
1 45854U 20041A   26117.09853679 -.00000106  00000+0  00000+0 0  9993
2 45854  56.6387  30.9255 0062218 205.0319 313.2798  2.00559759 43019
